FENGYUN 3A              
1 32958U 08026A   26087.83654698  .00000100  00000+0  68061-4 0  9990
2 32958  98.6822  30.2008 0008861   6.9013 353.2283 14.19552128924008
HUANJING 1A (HJ-1A)     
1 33320U 08041A   26087.85510559  .00001733  00000+0  21480-3 0  9996
2 33320  97.6653  76.8292 0020331  45.5103 314.7770 14.83782207946493
HUANJING 1B (HJ-1B)     
1 33321U 08041B   26087.85652029  .00001105  00000+0  14014-3 0  9994
2 33321  97.6500  80.2393 0038030  87.0150 273.5415 14.83150558946502
SHIJIAN-6 03A (SJ-6 03A)
1 33408U 08053A   26087.82710969  .00006366  00000+0  33178-3 0  9994
2 33408  97.8511 118.3692 0010009 291.7005  68.3161 15.16318699950788
SHIJIAN-6 03B (SJ-6 03B)
1 33409U 08053B   26087.87325916  .00003035  00000+0  22367-3 0  9992
2 33409  97.8630 106.4250 0018565 314.7785  45.1929 15.03991550950677
CHUANGXIN 1-02 (CX-1-02)
1 33434U 08056B   26087.84018704 -.00000103  00000+0 -22751-4 0  9997
2 33434  98.6230 114.8800 0014688  21.0910 339.0875 14.30134731907131
STARS (KUKAI)           
1 33498U 09002G   26087.79308423  .00006076  00000+0  55883-3 0  9997
2 33498  98.1482  31.8907 0010348  77.7442 282.4936 14.95126558926463
KKS-1 (KISEKI)          
1 33499U 09002H   26087.83106509  .00001775  00000+0  22576-3 0  9998
2 33499  98.1185   9.0182 0007617 180.8320 179.2881 14.82898193924289
NOAA 19                 
1 33591U 09005A   26087.84802877  .00000034  00000+0  42169-4 0  9994
2 33591  98.9572 158.6480 0012734 256.1675 103.8080 14.13460435883138
UK-DMC 2                
1 35683U 09041C   26087.82274525  .00001555  00000+0  23363-3 0  9992
2 35683  97.8686 224.8195 0001409  99.3043 260.8327 14.75894551894710
METEOR-M 1              
1 35865U 09049A   26087.85574247  .00000114  00000+0  69843-4 0  9993
2 35865  98.7306  50.9429 0002389 154.8038 205.3257 14.23136775857825
OCEANSAT-2              
1 35931U 09051A   26087.84906288  .00000253  00000+0  19840-3 0  9998
2 35931  98.2311  82.7369 0017683  99.3939 260.9228 13.99652511868091
SWISSCUBE               
1 35932U 09051B   26087.70538564  .00001230  00000+0  25341-3 0  9991
2 35932  98.4083 354.1844 0008005 100.2437 259.9666 14.62309572877391
BEESAT-1                
1 35933U 09051C   26087.67362015  .00001032  00000+0  21755-3 0  9999
2 35933  98.4013 353.9538 0006348 111.3040 248.8838 14.61575406877425
ITUPSAT1                
1 35935U 09051E   26087.66283312  .00000934  00000+0  20347-3 0  9998
2 35935  98.4100 353.2185 0008419 122.6075 237.5938 14.60306720876985
DMSP 5D-3 F18 (USA 210) 
1 35951U 09057A   26087.87716164  .00000293  00000+0  17482-3 0  9995
2 35951  98.8989  68.8459 0012039 116.3880 243.8531 14.14848205848236
PROBA-2                 
1 36037U 09059B   26087.56552203  .00000277  00000+0  75051-4 0  9990
2 36037  98.2444 272.0362 0013517 164.7230 195.4378 14.54803586869806
