[{"OBJECT_NAME":"FENGYUN 3A","OBJECT_ID":"2008-026A","EPOCH":"2026-03-28T20:04:37.659072","MEAN_MOTION":14.19552128,"ECCENTRICITY":0.0008861,"INCLINATION":98.6822,"RA_OF_ASC_NODE":30.2008,"ARG_OF_PERICENTER":6.9013,"MEAN_ANOMALY":353.2283,"EPHEMERIS_TYPE":0,"CLASSIFICATION_TYPE":"U","NORAD_CAT_ID":32958,"ELEMENT_SET_NO":999,"REV_AT_EPOCH":92400,"BSTAR":6.8061e-5,"MEAN_MOTION_DOT":1.0e-6,"MEAN_MOTION_DDOT":0},{"OBJECT_NAME":"HUANJING 1A (HJ-1A)","OBJECT_ID":"2008-041A","EPOCH":"2026-03-28T20:31:21.122976","MEAN_MOTION":14.83782207,"ECCENTRICITY":0.0020331,"INCLINATION":97.6653,"RA_OF_ASC_NODE":76.8292,"ARG_OF_PERICENTER":45.5103,"MEAN_ANOMALY":314.777,"EPHEMERIS_TYPE":0,"CLASSIFICATION_TYPE":"U","NORAD_CAT_ID":33320,"ELEMENT_SET_NO":999,"REV_AT_EPOCH":94649,"BSTAR":0.0002148,"MEAN_MOTION_DOT":1.733e-5,"MEAN_MOTION_DDOT":0},{"OBJECT_NAME":"HUANJING 1B (HJ-1B)","OBJECT_ID":"2008-041B","EPOCH":"2026-03-28T20:33:23.353056","MEAN_MOTION":14.83150558,"ECCENTRICITY":0.003803,"INCLINATION":97.65,"RA_OF_ASC_NODE":80.2393,"ARG_OF_PERICENTER":87.015,"MEAN_ANOMALY":273.5415,"EPHEMERIS_TYPE":0,"CLASSIFICATION_TYPE":"U","NORAD_CAT_ID":33321,"ELEMENT_SET_NO":999,"REV_AT_EPOCH":94650,"BSTAR":0.00014014,"MEAN_MOTION_DOT":1.105e-5,"MEAN_MOTION_DDOT":0},{"OBJECT_NAME":"SHIJIAN-6 03A (SJ-6 03A)","OBJECT_ID":"2008-053A","EPOCH":"2026-03-28T19:51:02.277216","MEAN_MOTION":15.16318699,"ECCENTRICITY":0.0010009,"INCLINATION":97.8511,"RA_OF_ASC_NODE":118.3692,"ARG_OF_PERICENTER":291.7005,"MEAN_ANOMALY":68.3161,"EPHEMERIS_TYPE":0,"CLASSIFICATION_TYPE":"U","NORAD_CAT_ID":33408,"ELEMENT_SET_NO":999,"REV_AT_EPOCH":95078,"BSTAR":0.00033178,"MEAN_MOTION_DOT":6.366e-5,"MEAN_MOTION_DDOT":0},{"OBJECT_NAME":"SHIJIAN-6 03B (SJ-6 03B)","OBJECT_ID":"2008-053B","EPOCH":"2026-03-28T20:57:29.591424","MEAN_MOTION":15.0399155,"ECCENTRICITY":0.0018565,"INCLINATION":97.863,"RA_OF_ASC_NODE":106.425,"ARG_OF_PERICENTER":314.7785,"MEAN_ANOMALY":45.1929,"EPHEMERIS_TYPE":0,"CLASSIFICATION_TYPE":"U","NORAD_CAT_ID":33409,"ELEMENT_SET_NO":999,"REV_AT_EPOCH":95067,"BSTAR":0.00022367,"MEAN_MOTION_DOT":3.035e-5,"MEAN_MOTION_DDOT":0},{"OBJECT_NAME":"CHUANGXIN 1-02 (CX-1-02)","OBJECT_ID":"2008-056B","EPOCH":"2026-03-28T20:09:52.160256","MEAN_MOTION":14.30134731,"ECCENTRICITY":0.0014688,"INCLINATION":98.623,"RA_OF_ASC_NODE":114.88,"ARG_OF_PERICENTER":21.091,"MEAN_ANOMALY":339.0875,"EPHEMERIS_TYPE":0,"CLASSIFICATION_TYPE":"U","NORAD_CAT_ID":33434,"ELEMENT_SET_NO":999,"REV_AT_EPOCH":90713,"BSTAR":-2.2751e-5,"MEAN_MOTION_DOT":-1.03e-6,"MEAN_MOTION_DDOT":0},{"OBJECT_NAME":"STARS (KUKAI)","OBJECT_ID":"2009-002G","EPOCH":"2026-03-28T19:02:02.477472","MEAN_MOTION":14.95126558,"ECCENTRICITY":0.0010348,"INCLINATION":98.1482,"RA_OF_ASC_NODE":31.8907,"ARG_OF_PERICENTER":77.7442,"MEAN_ANOMALY":282.4936,"EPHEMERIS_TYPE":0,"CLASSIFICATION_TYPE":"U","NORAD_CAT_ID":33498,"ELEMENT_SET_NO":999,"REV_AT_EPOCH":92646,"BSTAR":0.00055883,"MEAN_MOTION_DOT":6.076e-5,"MEAN_MOTION_DDOT":0},{"OBJECT_NAME":"KKS-1 (KISEKI)","OBJECT_ID":"2009-002H","EPOCH":"2026-03-28T19:56:44.023776","MEAN_MOTION":14.82898193,"ECCENTRICITY":0.0007617,"INCLINATION":98.1185,"RA_OF_ASC_NODE":9.0182,"ARG_OF_PERICENTER":180.832,"MEAN_ANOMALY":179.2881,"EPHEMERIS_TYPE":0,"CLASSIFICATION_TYPE":"U","NORAD_CAT_ID":33499,"ELEMENT_SET_NO":999,"REV_AT_EPOCH":92428,"BSTAR":0.00022576,"MEAN_MOTION_DOT":1.775e-5,"MEAN_MOTION_DDOT":0},{"OBJECT_NAME":"NOAA 19","OBJECT_ID":"2009-005A","EPOCH":"2026-03-28T20:21:09.685728","MEAN_MOTION":14.13460435,"ECCENTRICITY":0.0012734,"INCLINATION":98.9572,"RA_OF_ASC_NODE":158.648,"ARG_OF_PERICENTER":256.1675,"MEAN_ANOMALY":103.808,"EPHEMERIS_TYPE":0,"CLASSIFICATION_TYPE":"U","NORAD_CAT_ID":33591,"ELEMENT_SET_NO":999,"REV_AT_EPOCH":88313,"BSTAR":4.2169e-5,"MEAN_MOTION_DOT":3.4e-7,"MEAN_MOTION_DDOT":0},{"OBJECT_NAME":"UK-DMC 2","OBJECT_ID":"2009-041C","EPOCH":"2026-03-28T19:44:45.189600","MEAN_MOTION":14.75894551,"ECCENTRICITY":0.0001409,"INCLINATION":97.8686,"RA_OF_ASC_NODE":224.8195,"ARG_OF_PERICENTER":99.3043,"MEAN_ANOMALY":260.8327,"EPHEMERIS_TYPE":0,"CLASSIFICATION_TYPE":"U","NORAD_CAT_ID":35683,"ELEMENT_SET_NO":999,"REV_AT_EPOCH":89471,"BSTAR":0.00023363,"MEAN_MOTION_DOT":1.555e-5,"MEAN_MOTION_DDOT":0},{"OBJECT_NAME":"METEOR-M 1","OBJECT_ID":"2009-049A","EPOCH":"2026-03-28T20:32:16.149408","MEAN_MOTION":14.23136775,"ECCENTRICITY":0.0002389,"INCLINATION":98.7306,"RA_OF_ASC_NODE":50.9429,"ARG_OF_PERICENTER":154.8038,"MEAN_ANOMALY":205.3257,"EPHEMERIS_TYPE":0,"CLASSIFICATION_TYPE":"U","NORAD_CAT_ID":35865,"ELEMENT_SET_NO":999,"REV_AT_EPOCH":85782,"BSTAR":6.9843e-5,"MEAN_MOTION_DOT":1.14e-6,"MEAN_MOTION_DDOT":0},{"OBJECT_NAME":"OCEANSAT-2","OBJECT_ID":"2009-051A","EPOCH":"2026-03-28T20:22:39.032832","MEAN_MOTION":13.99652511,"ECCENTRICITY":0.0017683,"INCLINATION":98.2311,"RA_OF_ASC_NODE":82.7369,"ARG_OF_PERICENTER":99.3939,"MEAN_ANOMALY":260.9228,"EPHEMERIS_TYPE":0,"CLASSIFICATION_TYPE":"U","NORAD_CAT_ID":35931,"ELEMENT_SET_NO":999,"REV_AT_EPOCH":86809,"BSTAR":0.0001984,"MEAN_MOTION_DOT":2.53e-6,"MEAN_MOTION_DDOT":0},{"OBJECT_NAME":"SWISSCUBE","OBJECT_ID":"2009-051B","EPOCH":"2026-03-28T16:55:45.319296","MEAN_MOTION":14.62309572,"ECCENTRICITY":0.0008005,"INCLINATION":98.4083,"RA_OF_ASC_NODE":354.1844,"ARG_OF_PERICENTER":100.2437,"MEAN_ANOMALY":259.9666,"EPHEMERIS_TYPE":0,"CLASSIFICATION_TYPE":"U","NORAD_CAT_ID":35932,"ELEMENT_SET_NO":999,"REV_AT_EPOCH":87739,"BSTAR":0.00025341,"MEAN_MOTION_DOT":1.23e-5,"MEAN_MOTION_DDOT":0},{"OBJECT_NAME":"BEESAT-1","OBJECT_ID":"2009-051C","EPOCH":"2026-03-28T16:10:00.780960","MEAN_MOTION":14.61575406,"ECCENTRICITY":0.0006348,"INCLINATION":98.4013,"RA_OF_ASC_NODE":353.9538,"ARG_OF_PERICENTER":111.304,"MEAN_ANOMALY":248.8838,"EPHEMERIS_TYPE":0,"CLASSIFICATION_TYPE":"U","NORAD_CAT_ID":35933,"ELEMENT_SET_NO":999,"REV_AT_EPOCH":87742,"BSTAR":0.00021755,"MEAN_MOTION_DOT":1.032e-5,"MEAN_MOTION_DDOT":0},{"OBJECT_NAME":"ITUPSAT1","OBJECT_ID":"2009-051E","EPOCH":"2026-03-28T15:54:28.781568","MEAN_MOTION":14.6030672,"ECCENTRICITY":0.0008419,"INCLINATION":98.41,"RA_OF_ASC_NODE":353.2185,"ARG_OF_PERICENTER":122.6075,"MEAN_ANOMALY":237.5938,"EPHEMERIS_TYPE":0,"CLASSIFICATION_TYPE":"U","NORAD_CAT_ID":35935,"ELEMENT_SET_NO":999,"REV_AT_EPOCH":87698,"BSTAR":0.00020347,"MEAN_MOTION_DOT":9.34e-6,"MEAN_MOTION_DDOT":0},{"OBJECT_NAME":"DMSP 5D-3 F18 (USA 210)","OBJECT_ID":"2009-057A","EPOCH":"2026-03-28T21:03:06.765696","MEAN_MOTION":14.14848205,"ECCENTRICITY":0.0012039,"INCLINATION":98.8989,"RA_OF_ASC_NODE":68.8459,"ARG_OF_PERICENTER":116.388,"MEAN_ANOMALY":243.8531,"EPHEMERIS_TYPE":0,"CLASSIFICATION_TYPE":"U","NORAD_CAT_ID":35951,"ELEMENT_SET_NO":999,"REV_AT_EPOCH":84823,"BSTAR":0.00017482,"MEAN_MOTION_DOT":2.93e-6,"MEAN_MOTION_DDOT":0},{"OBJECT_NAME":"PROBA-2","OBJECT_ID":"2009-059B","EPOCH":"2026-03-28T13:34:21.103392","MEAN_MOTION":14.54803586,"ECCENTRICITY":0.0013517,"INCLINATION":98.2444,"RA_OF_ASC_NODE":272.0362,"ARG_OF_PERICENTER":164.723,"MEAN_ANOMALY":195.4378,"EPHEMERIS_TYPE":0,"CLASSIFICATION_TYPE":"U","NORAD_CAT_ID":36037,"ELEMENT_SET_NO":999,"REV_AT_EPOCH":86980,"BSTAR":7.5051e-5,"MEAN_MOTION_DOT":2.77e-6,"MEAN_MOTION_DDOT":0}]
